IRIDIUM 26              
1 24903U 97043A   25273.80696176  .00001023  00000+0  33717-3 0  9992
2 24903  86.3919  66.2097 0002279  90.4796 269.6662 14.37229101471910
IRIDIUM 22              
1 24907U 97043E   25273.68497660  .00000890  00000+0  29979-3 0  9995
2 24907  86.3917  69.8935 0002152  87.3363 272.8081 14.36032117471916
DUMMY MASS 1            
1 24925U 97048A   25273.52889164  .00001009  00000+0  10935-3 0  9992
2 24925  86.3289  86.5913 0008482 121.9819 238.2232 14.87073931520782
DUMMY MASS 2            
1 24926U 97048B   25273.77781300  .00000989  00000+0  10773-3 0  9999
2 24926  86.3290  88.1046 0008959 131.7020 228.4973 14.86825621520594
IRIDIUM 29              
1 24944U 97051A   25273.80932632  .00000923  00000+0  30761-3 0  9990
2 24944  86.3898  99.5781 0001924  85.8448 274.2969 14.36553383468434
IRIDIUM 33              
1 24946U 97051C   25273.48930583  .00000704  00000+0  24067-3 0  9998
2 24946  86.3814  98.9819 0009962  93.4869 266.7467 14.34954409467846
IRIDIUM 28              
1 24948U 97051E   25273.78573019  .00000892  00000+0  29173-3 0  9991
2 24948  86.3903  97.0411 0002628  90.4714 269.6784 14.37459937469017
IRIDIUM 36              
1 24967U 97056C   25273.59323317  .00000709  00000+0  22948-3 0  9990
2 24967  86.3954 128.7501 0002313  82.8751 277.2710 14.37686191467367
